[{"OBJECT_NAME":"GONETS-M 20","OBJECT_ID":"2020-091A","EPOCH":"2026-03-09T21:56:59.863200","MEAN_MOTION":12.42889799,"ECCENTRICITY":0.002195,"INCLINATION":82.5101,"RA_OF_ASC_NODE":4.142,"ARG_OF_PERICENTER":38.5567,"MEAN_ANOMALY":321.7076,"EPHEMERIS_TYPE":0,"CLASSIFICATION_TYPE":"U","NORAD_CAT_ID":47227,"ELEMENT_SET_NO":999,"REV_AT_EPOCH":23874,"BSTAR":2.3075843e-5,"MEAN_MOTION_DOT":1.3e-7,"MEAN_MOTION_DDOT":0},{"OBJECT_NAME":"DELTA 1 DEB","OBJECT_ID":"1976-077FS","EPOCH":"2026-03-07T18:32:44.356704","MEAN_MOTION":11.68369363,"ECCENTRICITY":0.04119525,"INCLINATION":102.7091,"RA_OF_ASC_NODE":164.9636,"ARG_OF_PERICENTER":320.8861,"MEAN_ANOMALY":194.8629,"EPHEMERIS_TYPE":0,"CLASSIFICATION_TYPE":"U","NORAD_CAT_ID":27727,"ELEMENT_SET_NO":999,"REV_AT_EPOCH":49973,"BSTAR":0.0002376349,"MEAN_MOTION_DOT":-2.4e-7,"MEAN_MOTION_DDOT":0}]
